#aV2023 11 12  0  0  0.00000000     288 DD+AD WGS84 FIT  NGA
## 2288      0.00000000   300.00000000 60260 0.0000000000000
+   32     1  2  3  4  5  6  7  8  9 10 11 12 13 14 15 16 17
+         18 19 20 21 22 23 24 25 26 27 28 29 30 31 32  0  0
+          0  0  0  0  0  0  0  0  0  0  0  0  0  0  0  0  0
+          0  0  0  0  0  0  0  0  0  0  0  0  0  0  0  0  0
+          0  0  0  0  0  0  0  0  0  0  0  0  0  0  0  0  0
++         2  2  2  2  2  2  2  2  2  2  2  2  2  2  2  2  2
++         2  2  2  2  2  2  2  2  2  2  2  2  2  2  2  0  0
++         0  0  0  0  0  0  0  0  0  0  0  0  0  0  0  0  0
++         0  0  0  0  0  0  0  0  0  0  0  0  0  0  0  0  0
++         0  0  0  0  0  0  0  0  0  0  0  0  0  0  0  0  0
%c cc cc ccc ccc cccc cccc cccc cccc ccccc ccccc ccccc ccccc
%c cc cc ccc ccc cccc cccc cccc cccc ccccc ccccc ccccc ccccc
%f  0.0000000  0.000000000  0.00000000000  0.000000000000000
%f  0.0000000  0.000000000  0.00000000000  0.000000000000000
%i    0    0    0    0      0      0      0      0         0
%i    0    0    0    0      0      0      0      0         0
/*      NGA, ST. LOUIS,MO.                                  
/*   EPHEMERIS COMPUTED FROM 2 DAYS OF DATA                 
/*   EPOCHA v8 SMOOTHER                                     
/*   G2139 IERS2010 SATIGS SATAPC                           
*  2023 11 12  2 20  0.00000000
P  1  13776.667513 -16725.302436  14775.841844    163.195980                    
V  1  -2684.624823  19344.570254  24178.180232     -0.000013                    
P  2  14880.177917 -11025.943533  19470.778819   -530.137188                    
V  2  -1704.886621  23671.434890  15296.949940      0.050007                    
P  3  22420.617120 -12318.257348  -7073.226873    -20.132716                    
V  3   9012.267091   -739.539241  30584.241204      0.251154                    
P  4  12723.017671  -8660.409003 -21648.357872    210.422178                    
V  4  19669.865665  19202.878844   3750.468733      0.104870                    
P  5 -25343.657994   4697.560286  -6790.114018   -150.040729                    
V  5   6969.971567  -5168.510943 -30304.787288     -0.014438                    
P  6  -7442.250772 -18704.732212 -17207.380495    508.262705                    
V  6   5973.691401 -21167.066383  20435.154441     -0.098598                    
P  7   4921.695168 -25830.980557    690.486899     15.807339                    
V  7   3554.425330    414.865000 -31822.168714     -0.099529                    
P  8  19353.622285   -599.452060  18279.702045   -151.672644                    
V  8  16893.366402  16017.320579 -16879.656802     -0.018477                    
P  9   2290.470259 -16944.653751 -20399.997569     -5.587820                    
V  9  20262.977481  15894.476890 -11030.443291      0.112053                    
P 10   7230.125010  13179.899369  22107.762311    -61.032040                    
V 10 -26118.747915   8694.005278   3066.837497     -0.015345                    
P 11 -13582.077505  -7194.874446 -21644.310946   -456.215424                    
V 11   7254.004517 -26539.534836   4214.156659     -0.163396                    
P 12 -23885.736526  10164.388657  -5713.015194   -446.022926                    
V 12  -7349.605556   -850.715579  30774.156357     -0.041032                    
P 13 -20586.302963 -10223.809654  13291.245720    594.299641                    
V 13  -9589.207889 -14301.835946 -25256.977209      0.041291                    
P 14  -3052.615679 -15248.024313  21548.145507    240.711236                    
V 14  26291.207834  -7589.213862  -1819.463096      0.108067                    
P 15 -18831.132720   3551.251994  17990.361461     96.248253                    
V 15 -18856.565988 -14742.107970 -16168.718020      0.037570                    
P 16  24279.188206   2388.894386 -11356.616129   -423.626212                    
V 16 -12973.412849   5012.284105 -27002.871493      0.065994                    
P 17 -10276.781507 -21696.719338  11653.475771    723.329191                    
V 17  11443.230508   8595.101491  27239.381572     -0.003763                    
P 18  -4551.179054  25991.069140   1975.920068   -476.506703                    
V 18  -3026.131920   1878.462630 -32046.779357     -0.109637                    
P 19 -16578.750822 -20823.119323   2464.941994    397.687303                    
V 19   3876.735996    984.391426  31544.050048      0.052157                    
P 20 -20052.373980  -3037.041600 -17004.734548    402.091429                    
V 20  18251.038701 -12069.822375 -19493.707950     -0.019281                    
P 21  15428.674361  -6634.970089  20862.740089    144.503264                    
V 21  -1751.665031  25551.226943  10576.555132     -0.009848                    
P 22 -10086.562823 -12879.659079  21320.307344     85.568884                    
V 22  25240.668014  -6648.552278   8377.692999     -0.070114                    
P 23  -6891.056287  16542.969352  19552.000415     97.447910                    
V 23 -23730.010228   7358.248667 -14777.241873      0.063021                    
P 24 -14625.241515  12505.805634  17730.975753   -369.101848                    
V 24    350.947695 -23668.694412  17034.684583     -0.090303                    
P 25 -14180.707584  16493.083148 -15377.921117    476.992776                    
V 25 -18778.840917   4098.750109  22450.018114      0.016787                    
P 26  18143.507473   7179.410079 -18307.679083    217.257299                    
V 26 -20556.829784  10328.433844 -16078.245704     -0.025813                    
P 27  22353.667494  11637.051224   8773.170120    -68.679775                    
V 27   7070.039441   9174.935450 -28910.107845     -0.053219                    
P 28   7475.740161  20244.388624 -15509.776160    -44.222072                    
V 28  -5286.671596  19023.025245  22317.685834     -0.083520                    
P 29  -3905.626294  16220.300623 -20685.025702   -610.224246                    
V 29 -18743.674295 -18260.455283 -10901.338595      0.000160                    
P 30  -2336.665785 -24397.447679  10018.339260   -469.190509                    
V 30   5950.294153 -11698.111398 -27693.928268      0.040102                    
P 31  12054.005842  12103.745422 -20433.581212   -225.649901                    
V 31  -6960.083315  24696.921436  11038.481817     -0.003581                    
P 32  14828.535795  20648.787949   8234.147875   -584.637777                    
V 32  -9237.695987  -4859.442674  29273.070244     -0.045470                    
EOF
